[{"OBJECT_NAME":"STARLINK-5971","OBJECT_ID":"2023-083AT","EPOCH":"2023-11-24T08:39:33.328224","MEAN_MOTION":15.02530632,"ECCENTRICITY":0.0001148,"INCLINATION":43.0035,"RA_OF_ASC_NODE":293.2501,"ARG_OF_PERICENTER":262.4116,"MEAN_ANOMALY":97.6596,"EPHEMERIS_TYPE":0,"CLASSIFICATION_TYPE":"U","NORAD_CAT_ID":56917,"ELEMENT_SET_NO":999,"REV_AT_EPOCH":2521,"BSTAR":0.001032,"MEAN_MOTION_DOT":0.00013762,"MEAN_MOTION_DDOT":0},{"OBJECT_NAME":"STARLINK-5951","OBJECT_ID":"2023-083AU","EPOCH":"2023-11-24T22:45:07.393536","MEAN_MOTION":15.02541607,"ECCENTRICITY":0.000121,"INCLINATION":43.0048,"RA_OF_ASC_NODE":289.915,"ARG_OF_PERICENTER":234.0796,"MEAN_ANOMALY":125.9934,"EPHEMERIS_TYPE":0,"CLASSIFICATION_TYPE":"U","NORAD_CAT_ID":56918,"ELEMENT_SET_NO":999,"REV_AT_EPOCH":2530,"BSTAR":-8.884e-5,"MEAN_MOTION_DOT":-1.404e-5,"MEAN_MOTION_DDOT":0},{"OBJECT_NAME":"STARLINK-5966","OBJECT_ID":"2023-083AV","EPOCH":"2023-11-24T22:53:06.974016","MEAN_MOTION":15.0254132,"ECCENTRICITY":0.0001112,"INCLINATION":43.0054,"RA_OF_ASC_NODE":289.9563,"ARG_OF_PERICENTER":256.6174,"MEAN_ANOMALY":103.4544,"EPHEMERIS_TYPE":0,"CLASSIFICATION_TYPE":"U","NORAD_CAT_ID":56919,"ELEMENT_SET_NO":999,"REV_AT_EPOCH":2610,"BSTAR":-4.1592e-5,"MEAN_MOTION_DOT":-7.65e-6,"MEAN_MOTION_DDOT":0},{"OBJECT_NAME":"STARLINK-5960","OBJECT_ID":"2023-083AW","EPOCH":"2023-11-24T22:35:31.864128","MEAN_MOTION":15.02528822,"ECCENTRICITY":0.0001689,"INCLINATION":43.005,"RA_OF_ASC_NODE":289.8626,"ARG_OF_PERICENTER":252.4772,"MEAN_ANOMALY":107.5886,"EPHEMERIS_TYPE":0,"CLASSIFICATION_TYPE":"U","NORAD_CAT_ID":56920,"ELEMENT_SET_NO":999,"REV_AT_EPOCH":2610,"BSTAR":-6.7604e-5,"MEAN_MOTION_DOT":-1.117e-5,"MEAN_MOTION_DDOT":0},{"OBJECT_NAME":"STARLINK-5958","OBJECT_ID":"2023-083AX","EPOCH":"2023-11-24T22:48:19.295712","MEAN_MOTION":15.02534306,"ECCENTRICITY":0.0001052,"INCLINATION":43.0045,"RA_OF_ASC_NODE":289.9313,"ARG_OF_PERICENTER":255.7986,"MEAN_ANOMALY":104.2739,"EPHEMERIS_TYPE":0,"CLASSIFICATION_TYPE":"U","NORAD_CAT_ID":56921,"ELEMENT_SET_NO":999,"REV_AT_EPOCH":2610,"BSTAR":-3.4567e-5,"MEAN_MOTION_DOT":-6.7e-6,"MEAN_MOTION_DDOT":0},{"OBJECT_NAME":"STARLINK-5937","OBJECT_ID":"2023-083AY","EPOCH":"2023-11-24T22:27:32.652576","MEAN_MOTION":15.02535929,"ECCENTRICITY":0.0001093,"INCLINATION":43.005,"RA_OF_ASC_NODE":289.821,"ARG_OF_PERICENTER":266.1225,"MEAN_ANOMALY":93.9492,"EPHEMERIS_TYPE":0,"CLASSIFICATION_TYPE":"U","NORAD_CAT_ID":56922,"ELEMENT_SET_NO":999,"REV_AT_EPOCH":2530,"BSTAR":-4.2136e-5,"MEAN_MOTION_DOT":-7.73e-6,"MEAN_MOTION_DDOT":0},{"OBJECT_NAME":"STARLINK-5952","OBJECT_ID":"2023-083AZ","EPOCH":"2023-11-24T22:40:19.867296","MEAN_MOTION":15.02534121,"ECCENTRICITY":9.94e-5,"INCLINATION":43.0038,"RA_OF_ASC_NODE":289.8874,"ARG_OF_PERICENTER":265.7855,"MEAN_ANOMALY":94.2874,"EPHEMERIS_TYPE":0,"CLASSIFICATION_TYPE":"U","NORAD_CAT_ID":56923,"ELEMENT_SET_NO":999,"REV_AT_EPOCH":2610,"BSTAR":-2.5546e-5,"MEAN_MOTION_DOT":-5.49e-6,"MEAN_MOTION_DDOT":0},{"OBJECT_NAME":"STARLINK-5731","OBJECT_ID":"2023-083BA","EPOCH":"2023-11-24T22:19:33.333888","MEAN_MOTION":15.02531054,"ECCENTRICITY":8.03e-5,"INCLINATION":43.0033,"RA_OF_ASC_NODE":289.7813,"ARG_OF_PERICENTER":254.9195,"MEAN_ANOMALY":105.1559,"EPHEMERIS_TYPE":0,"CLASSIFICATION_TYPE":"U","NORAD_CAT_ID":56924,"ELEMENT_SET_NO":999,"REV_AT_EPOCH":2530,"BSTAR":0.00043437,"MEAN_MOTION_DOT":5.668e-5,"MEAN_MOTION_DDOT":0},{"OBJECT_NAME":"STARLINK-5733","OBJECT_ID":"2023-083BB","EPOCH":"2023-11-24T22:24:20.869632","MEAN_MOTION":15.02533958,"ECCENTRICITY":0.0001017,"INCLINATION":43.0039,"RA_OF_ASC_NODE":289.8046,"ARG_OF_PERICENTER":250.2679,"MEAN_ANOMALY":109.8053,"EPHEMERIS_TYPE":0,"CLASSIFICATION_TYPE":"U","NORAD_CAT_ID":56925,"ELEMENT_SET_NO":999,"REV_AT_EPOCH":2530,"BSTAR":-1.3165e-5,"MEAN_MOTION_DOT":-3.81e-6,"MEAN_MOTION_DDOT":0},{"OBJECT_NAME":"STARLINK-5746","OBJECT_ID":"2023-083BC","EPOCH":"2023-11-24T22:32:20.555520","MEAN_MOTION":15.02536092,"ECCENTRICITY":6.98e-5,"INCLINATION":43.0037,"RA_OF_ASC_NODE":289.8476,"ARG_OF_PERICENTER":256.7826,"MEAN_ANOMALY":103.2938,"EPHEMERIS_TYPE":0,"CLASSIFICATION_TYPE":"U","NORAD_CAT_ID":56926,"ELEMENT_SET_NO":999,"REV_AT_EPOCH":2530,"BSTAR":-7.8474e-5,"MEAN_MOTION_DOT":-1.263e-5,"MEAN_MOTION_DDOT":0},{"OBJECT_NAME":"STARLINK-5808","OBJECT_ID":"2023-083BD","EPOCH":"2023-11-25T06:00:00.999648","MEAN_MOTION":15.65156043,"ECCENTRICITY":0.0001563,"INCLINATION":42.9849,"RA_OF_ASC_NODE":216.8307,"ARG_OF_PERICENTER":264.8121,"MEAN_ANOMALY":252.1956,"EPHEMERIS_TYPE":0,"CLASSIFICATION_TYPE":"U","NORAD_CAT_ID":56927,"ELEMENT_SET_NO":999,"REV_AT_EPOCH":2616,"BSTAR":-0.0096739,"MEAN_MOTION_DOT":-0.00896835,"MEAN_MOTION_DDOT":0},{"OBJECT_NAME":"FOSSASA-2E16","OBJECT_ID":"2023-084A","EPOCH":"2023-11-25T02:25:22.916352","MEAN_MOTION":15.27135656,"ECCENTRICITY":0.000546,"INCLINATION":97.5184,"RA_OF_ASC_NODE":84.4509,"ARG_OF_PERICENTER":359.9878,"MEAN_ANOMALY":0.136,"EPHEMERIS_TYPE":0,"CLASSIFICATION_TYPE":"U","NORAD_CAT_ID":56932,"ELEMENT_SET_NO":999,"REV_AT_EPOCH":2506,"BSTAR":0.0031636,"MEAN_MOTION_DOT":0.00085011,"MEAN_MOTION_DDOT":0},{"OBJECT_NAME":"OTTER PUP","OBJECT_ID":"2023-084B","EPOCH":"2023-11-24T23:08:07.007136","MEAN_MOTION":15.17486989,"ECCENTRICITY":0.0008077,"INCLINATION":97.5228,"RA_OF_ASC_NODE":83.4112,"ARG_OF_PERICENTER":357.24,"MEAN_ANOMALY":2.8787,"EPHEMERIS_TYPE":0,"CLASSIFICATION_TYPE":"U","NORAD_CAT_ID":56933,"ELEMENT_SET_NO":999,"REV_AT_EPOCH":2498,"BSTAR":0.00067429,"MEAN_MOTION_DOT":0.00013467,"MEAN_MOTION_DDOT":0},{"OBJECT_NAME":"GEISAT PRECURSOR","OBJECT_ID":"2023-084C","EPOCH":"2023-11-25T03:02:59.420832","MEAN_MOTION":15.14777478,"ECCENTRICITY":0.0009659,"INCLINATION":97.5279,"RA_OF_ASC_NODE":83.4672,"ARG_OF_PERICENTER":29.8854,"MEAN_ANOMALY":330.2928,"EPHEMERIS_TYPE":0,"CLASSIFICATION_TYPE":"U","NORAD_CAT_ID":56934,"ELEMENT_SET_NO":999,"REV_AT_EPOCH":2499,"BSTAR":0.00064507,"MEAN_MOTION_DOT":0.00011926,"MEAN_MOTION_DDOT":0},{"OBJECT_NAME":"FOSSASA-2E17","OBJECT_ID":"2023-084D","EPOCH":"2023-11-25T03:32:42.477504","MEAN_MOTION":15.25202222,"ECCENTRICITY":0.0005116,"INCLINATION":97.517,"RA_OF_ASC_NODE":84.3629,"ARG_OF_PERICENTER":3.0466,"MEAN_ANOMALY":357.0802,"EPHEMERIS_TYPE":0,"CLASSIFICATION_TYPE":"U","NORAD_CAT_ID":56935,"ELEMENT_SET_NO":999,"REV_AT_EPOCH":2506,"BSTAR":0.00321,"MEAN_MOTION_DOT":0.00081347,"MEAN_MOTION_DDOT":0},{"OBJECT_NAME":"FOSSASA-2E14","OBJECT_ID":"2023-084E","EPOCH":"2023-11-25T03:39:26.172864","MEAN_MOTION":15.24711445,"ECCENTRICITY":0.0005585,"INCLINATION":97.5181,"RA_OF_ASC_NODE":84.3668,"ARG_OF_PERICENTER":12.8459,"MEAN_ANOMALY":347.2919,"EPHEMERIS_TYPE":0,"CLASSIFICATION_TYPE":"U","NORAD_CAT_ID":56936,"ELEMENT_SET_NO":999,"REV_AT_EPOCH":2506,"BSTAR":0.0025012,"MEAN_MOTION_DOT":0.00062292,"MEAN_MOTION_DDOT":0},{"OBJECT_NAME":"EIVE","OBJECT_ID":"2023-084F","EPOCH":"2023-11-25T03:54:07.048512","MEAN_MOTION":15.16766733,"ECCENTRICITY":0.0008424,"INCLINATION":97.5239,"RA_OF_ASC_NODE":83.6575,"ARG_OF_PERICENTER":24.0232,"MEAN_ANOMALY":336.1392,"EPHEMERIS_TYPE":0,"CLASSIFICATION_TYPE":"U","NORAD_CAT_ID":56937,"ELEMENT_SET_NO":999,"REV_AT_EPOCH":2501,"BSTAR":0.0009854,"MEAN_MOTION_DOT":0.00019327,"MEAN_MOTION_DDOT":0}]
