STARLINK-5971           
1 56917U 23083AT  23328.36080241  .00013762  00000+0  10320-2 0  9992
2 56917  43.0035 293.2501 0001148 262.4116  97.6596 15.02530632 25212
STARLINK-5951           
1 56918U 23083AU  23328.94800224 -.00001404  00000+0 -88840-4 0  9994
2 56918  43.0048 289.9150 0001210 234.0796 125.9934 15.02541607 25303
STARLINK-5966           
1 56919U 23083AV  23328.95355294 -.00000765  00000+0 -41592-4 0  9990
2 56919  43.0054 289.9563 0001112 256.6174 103.4544 15.02541320 26109
STARLINK-5960           
1 56920U 23083AW  23328.94134102 -.00001117  00000+0 -67604-4 0  9998
2 56920  43.0050 289.8626 0001689 252.4772 107.5886 15.02528822 26109
STARLINK-5958           
1 56921U 23083AX  23328.95022333 -.00000670  00000+0 -34567-4 0  9997
2 56921  43.0045 289.9313 0001052 255.7986 104.2739 15.02534306 26100
STARLINK-5937           
1 56922U 23083AY  23328.93579459 -.00000773  00000+0 -42136-4 0  9997
2 56922  43.0050 289.8210 0001093 266.1225  93.9492 15.02535929 25302
STARLINK-5952           
1 56923U 23083AZ  23328.94467439 -.00000549  00000+0 -25546-4 0  9990
2 56923  43.0038 289.8874 0000994 265.7855  94.2874 15.02534121 26108
STARLINK-5731           
1 56924U 23083BA  23328.93024692  .00005668  00000+0  43437-3 0  9993
2 56924  43.0033 289.7813 0000803 254.9195 105.1559 15.02531054 25307
STARLINK-5733           
1 56925U 23083BB  23328.93357488 -.00000381  00000+0 -13165-4 0  9991
2 56925  43.0039 289.8046 0001017 250.2679 109.8053 15.02533958 25302
STARLINK-5746           
1 56926U 23083BC  23328.93912680 -.00001263  00000+0 -78474-4 0  9997
2 56926  43.0037 289.8476 0000698 256.7826 103.2938 15.02536092 25309
STARLINK-5808           
1 56927U 23083BD  23329.25001157 -.00896835  00000+0 -96739-2 0  9991
2 56927  42.9849 216.8307 0001563 264.8121 252.1956 15.65156043 26164
FOSSASA-2E16            
1 56932U 23084A   23329.10095968  .00085011  00000+0  31636-2 0  9994
2 56932  97.5184  84.4509 0005460 359.9878   0.1360 15.27135656 25069
OTTER PUP               
1 56933U 23084B   23328.96396999  .00013467  00000+0  67429-3 0  9992
2 56933  97.5228  83.4112 0008077 357.2400   2.8787 15.17486989 24986
GEISAT PRECURSOR        
1 56934U 23084C   23329.12707663  .00011926  00000+0  64507-3 0  9998
2 56934  97.5279  83.4672 0009659  29.8854 330.2928 15.14777478 24995
FOSSASA-2E17            
1 56935U 23084D   23329.14771386  .00081347  00000+0  32100-2 0  9991
2 56935  97.5170  84.3629 0005116   3.0466 357.0802 15.25202222 25064
FOSSASA-2E14            
1 56936U 23084E   23329.15238626  .00062292  00000+0  25012-2 0  9990
2 56936  97.5181  84.3668 0005585  12.8459 347.2919 15.24711445 25061
EIVE                    
1 56937U 23084F   23329.16258158  .00019327  00000+0  98540-3 0  9992
2 56937  97.5239  83.6575 0008424  24.0232 336.1392 15.16766733 25012
